NORAD_CAT_ID,OBJECT_NAME,OBJECT_TYPE,EPOCH,MEAN_MOTION,ECCENTRICITY,INCLINATION,RA_OF_ASC_NODE,ARG_OF_PERICENTER,MEAN_ANOMALY,BSTAR,MEAN_MOTION_DOT,MEAN_MOTION_DDOT,TLE_LINE0,TLE_LINE1,TLE_LINE2,SEMIMAJOR_AXIS,PERIOD,APOGEE,PERIGEE,DECAYED
55763.0,STARLINK-5593,PAYLOAD,2024-03-09 20:47:24,14.98330785,0.0003029,69.9981,284.4382,269.7398,90.3414,1.285e-05,6e-07,0.0,0 STARLINK-5593,1 55763U 23028Y   24069.86625455  .00000060  00000-0  12850-4 0  9999,2 55763  69.9981 284.4382 0003029 269.7398  90.3414 14.98330785 56728,6950.19,96.107,574.161,569.95,0.0
55763.0,STARLINK-5593,PAYLOAD,2024-03-09 23:59:40,14.9833068,0.0003033,69.998,284.1015,269.8366,90.2445,1.0921e-05,3.7e-07,0.0,0 STARLINK-5593,1 55763U 23028Y   24069.99977456  .00000037  00000-0  10921-4 0  9995,2 55763  69.9980 284.1015 0003033 269.8366  90.2445 14.98330680 56747,6950.191,96.107,574.164,569.948,0.0
55763.0,STARLINK-5593,PAYLOAD,2024-03-10 14:24:53,14.98330395,0.0002973,69.9978,282.5862,269.9919,90.0899,3.2521e-06,-5.4e-07,0.0,0 STARLINK-5593,1 55763U 23028Y   24070.60061456 -.00000054  00000-0  32521-5 0  9990,2 55763  69.9978 282.5862 0002973 269.9919  90.0899 14.98330395 56837,6950.192,96.107,574.123,569.99,0.0
55763.0,STARLINK-5593,PAYLOAD,2024-03-10 22:25:33,14.98330701,0.0003162,69.9987,281.7445,269.257,90.8226,6.5343e-06,-1.5e-07,0.0,0 STARLINK-5593,1 55763U 23028Y   24070.93441382 -.00000015  00000-0  65343-5 0  9991,2 55763  69.9987 281.7445 0003162 269.2570  90.8226 14.98330701 56880,6950.191,96.107,574.253,569.858,0.0
55763.0,STARLINK-5593,PAYLOAD,2024-03-11 00:01:41,14.98331432,0.0003059,69.9988,281.5761,269.0594,91.0214,1.1577e-05,4.5e-07,0.0,0 STARLINK-5593,1 55763U 23028Y   24071.00117323  .00000045  00000-0  11577-4 0  9996,2 55763  69.9988 281.5761 0003059 269.0594  91.0214 14.98331432 56892,6950.188,96.107,574.18,569.927,0.0
55763.0,STARLINK-5593,PAYLOAD,2024-03-12 00:03:42,14.98333019,0.000304,69.9985,279.0516,271.0683,89.0128,3.4231e-05,3.15e-06,0.0,0 STARLINK-5593,1 55763U 23028Y   24072.00256963  .00000315  00000-0  34231-4 0  9993,2 55763  69.9985 279.0516 0003040 271.0683  89.0128 14.98333019 57043,6950.184,96.107,574.161,569.936,0.0
55763.0,STARLINK-5593,PAYLOAD,2024-03-12 12:52:46,14.9832926,0.000297,69.9986,277.7047,273.2082,86.8737,1.0838e-05,3.6e-07,0.0,0 STARLINK-5593,1 55763U 23028Y   24072.53665216  .00000036  00000-0  10838-4 0  9993,2 55763  69.9986 277.7047 0002970 273.2082  86.8737 14.98329260 57129,6950.195,96.107,574.124,569.996,0.0
55763.0,STARLINK-5593,PAYLOAD,2024-03-13 00:05:43,14.98330681,0.0002974,69.9985,276.5266,272.3079,87.7739,1.2034e-05,5.1e-07,0.0,0 STARLINK-5593,1 55763U 23028Y   24073.00397082  .00000051  00000-0  12034-4 0  9996,2 55763  69.9985 276.5266 0002974 272.3079  87.7739 14.98330681 57196,6950.191,96.107,574.123,569.989,0.0
55763.0,STARLINK-5593,PAYLOAD,2024-03-13 06:30:15,14.98330465,0.0002968,69.9983,275.8529,272.9756,87.1063,-2.7343e-05,-4.19e-06,0.0,0 STARLINK-5593,1 55763U 23028Y   24073.27101184 -.00000419  00000-0 -27343-4 0  9990,2 55763  69.9983 275.8529 0002968 272.9756  87.1063 14.98330465 57238,6950.191,96.107,574.119,569.994,0.0
55763.0,STARLINK-5593,PAYLOAD,2024-03-13 19:19:20,14.98323429,0.0003494,69.9985,274.5055,271.9992,88.0767,-5.1191e-05,-7.04e-06,0.0,0 STARLINK-5593,1 55763U 23028Y   24073.80509509 -.00000704  00000-0 -51191-4 0  9997,2 55763  69.9985 274.5055 0003494 271.9992  88.0767 14.98323429 57318,6950.213,96.107,574.507,569.65,0.0
55763.0,STARLINK-5593,PAYLOAD,2024-03-13 22:31:35,14.98339582,0.0003439,69.9965,274.1694,271.0098,89.0666,-0.00015354,-1.925e-05,0.0,0 STARLINK-5593,1 55763U 23028Y   24073.93860882 -.00001925  00000-0 -15354-3 0  9991,2 55763  69.9965 274.1694 0003439 271.0098  89.0666 14.98339582 57336,6950.163,96.106,574.418,569.638,0.0
55763.0,STARLINK-5593,PAYLOAD,2024-03-14 00:07:43,14.9835032,0.000316,69.9974,274.001,269.3924,90.6873,-0.00031252,-3.822e-05,0.0,0 STARLINK-5593,1 55763U 23028Y   24074.00536675 -.00003822  00000-0 -31252-3 0  9993,2 55763  69.9974 274.0010 0003160 269.3924  90.6873 14.98350320 57348,6950.13,96.106,574.191,569.799,0.0
55763.0,STARLINK-5593,PAYLOAD,2024-03-14 06:32:16,14.98331789,0.0003308,69.9975,273.3273,271.905,88.173,-7.0753e-05,-9.37e-06,0.0,0 STARLINK-5593,1 55763U 23028Y   24074.27241021 -.00000937  00000-0 -70753-4 0  9994,2 55763  69.9975 273.3273 0003308 271.9050  88.1730 14.98331789 57381,6950.187,96.107,574.351,569.753,0.0
55763.0,STARLINK-5593,PAYLOAD,2024-03-14 12:56:48,14.98327347,0.0003028,69.9956,272.6537,271.4121,88.6691,-1.6669e-05,-2.92e-06,0.0,0 STARLINK-5593,1 55763U 23028Y   24074.53945238 -.00000292  00000-0 -16669-4 0  9994,2 55763  69.9956 272.6537 0003028 271.4121  88.6691 14.98327347 57429,6950.201,96.107,574.171,569.962,0.0
55763.0,STARLINK-5593,PAYLOAD,2024-03-14 20:57:29,14.98327352,0.0003024,69.9987,271.8125,269.4652,90.6161,-2.5581e-05,-3.98e-06,0.0,0 STARLINK-5593,1 55763U 23028Y   24074.87325313 -.00000398  00000-0 -25581-4 0  9997,2 55763  69.9987 271.8125 0003024 269.4652  90.6161 14.98327352 57475,6950.201,96.107,574.168,569.964,0.0
55763.0,STARLINK-5593,PAYLOAD,2024-03-15 12:58:49,14.9833098,0.0003037,69.9988,270.1292,269.5402,90.5409,2.6735e-05,2.26e-06,0.0,0 STARLINK-5593,1 55763U 23028Y   24075.54084964  .00000226  00000-0  26735-4 0  9996,2 55763  69.9988 270.1292 0003037 269.5402  90.5409 14.98330980 57577,6950.19,96.107,574.166,569.944,0.0
55763.0,STARLINK-5593,PAYLOAD,2024-03-15 22:35:37,14.98331316,0.0003025,69.9988,269.119,269.4051,90.6761,4.0244e-05,3.87e-06,0.0,0 STARLINK-5593,1 55763U 23028Y   24075.94140869  .00000387  00000-0  40244-4 0  9996,2 55763  69.9988 269.1190 0003025 269.4051  90.6761 14.98331316 57631,6950.189,96.107,574.156,569.951,0.0
55763.0,STARLINK-5593,PAYLOAD,2024-03-16 13:00:50,14.98328198,0.0003043,69.9987,267.6047,269.1596,90.9215,3.6441e-05,3.42e-06,0.0,0 STARLINK-5593,1 55763U 23028Y   24076.54225062  .00000342  00000-0  36441-4 0  9997,2 55763  69.9987 267.6047 0003043 269.1596  90.9215 14.98328198 57726,6950.198,96.107,574.178,569.949,0.0
55763.0,STARLINK-5593,PAYLOAD,2024-03-16 14:36:58,14.98327908,0.0003046,69.9987,267.4368,269.0828,90.9982,3.1363e-05,2.81e-06,0.0,0 STARLINK-5593,1 55763U 23028Y   24076.60901100  .00000281  00000-0  31363-4 0  9998,2 55763  69.9987 267.4368 0003046 269.0828  90.9982 14.98327908 57730,6950.199,96.107,574.181,569.947,0.0
55763.0,STARLINK-5593,PAYLOAD,2024-03-16 22:37:38,14.9832792,0.0003051,69.9986,266.595,267.3445,92.7365,2.3188e-05,1.84e-06,0.0,0 STARLINK-5593,1 55763U 23028Y   24076.94281145  .00000184  00000-0  23188-4 0  9993,2 55763  69.9986 266.5950 0003051 267.3445  92.7365 14.98327920 57782,6950.199,96.107,574.185,569.944,0.0
55763.0,STARLINK-5593,PAYLOAD,2024-03-17 13:02:51,14.98332985,0.0003073,69.9984,265.0794,267.6751,92.4056,2.247e-06,-6.6e-07,0.0,0 STARLINK-5593,1 55763U 23028Y   24077.54364846 -.00000066  00000-0  22470-5 0  9994,2 55763  69.9984 265.0794 0003073 267.6751  92.4056 14.98332985 57878,6950.184,96.107,574.184,569.913,0.0
55763.0,STARLINK-5593,PAYLOAD,2024-03-17 14:38:59,14.98333011,0.0003078,69.9983,264.9111,267.0063,93.0744,2.0062e-06,-6.9e-07,0.0,0 STARLINK-5593,1 55763U 23028Y   24077.61040825 -.00000069  00000-0  20062-5 0  9998,2 55763  69.9983 264.9111 0003078 267.0063  93.0744 14.98333011 57886,6950.184,96.107,574.188,569.909,0.0
55763.0,STARLINK-5593,PAYLOAD,2024-03-17 21:03:31,14.9833339,0.0003066,69.9986,264.2377,268.8688,91.212,9.7345e-06,2.3e-07,0.0,0 STARLINK-5593,1 55763U 23028Y   24077.87744744  .00000023  00000-0  97345-5 0  9994,2 55763  69.9986 264.2377 0003066 268.8688  91.2120 14.98333390 57928,6950.182,96.107,574.178,569.916,0.0
55763.0,STARLINK-5593,PAYLOAD,2024-03-18 11:28:44,14.98328726,0.0003009,69.9987,262.7223,269.2292,90.8523,2.191e-05,1.68e-06,0.0,0 STARLINK-5593,1 55763U 23028Y   24078.47828924  .00000168  00000-0  21910-4 0  9998,2 55763  69.9987 262.7223 0003009 269.2292  90.8523 14.98328726 58015,6950.197,96.107,574.153,569.971,0.0
55763.0,STARLINK-5593,PAYLOAD,2024-03-18 21:05:32,14.98329134,0.0003008,69.9987,261.7123,269.3296,90.7519,2.3312e-05,1.85e-06,0.0,0 STARLINK-5593,1 55763U 23028Y   24078.87884907  .00000185  00000-0  23312-4 0  9992,2 55763  69.9987 261.7123 0003008 269.3296  90.7519 14.98329134 58071,6950.196,96.107,574.151,569.97,0.0
55763.0,STARLINK-5593,PAYLOAD,2024-03-18 22:41:40,14.98329503,0.0003009,69.9988,261.544,269.5483,90.5331,2.6384e-05,2.22e-06,0.0,0 STARLINK-5593,1 55763U 23028Y   24078.94560876  .00000222  00000-0  26384-4 0  9990,2 55763  69.9988 261.5440 0003009 269.5483  90.5331 14.98329503 58084,6950.194,96.107,574.151,569.968,0.0
55763.0,STARLINK-5593,PAYLOAD,2024-03-20 13:08:54,14.98325341,0.0002887,69.9988,257.5046,265.8628,94.2201,-1.6886e-05,-2.94e-06,0.0,0 STARLINK-5593,1 55763U 23028Y   24080.54785143 -.00000294  00000-0 -16886-4 0  9992,2 55763  69.9988 257.5046 0002887 265.8628  94.2201 14.98325341 58324,6950.207,96.107,574.079,570.066,0.0
55763.0,STARLINK-5593,PAYLOAD,2024-03-20 21:09:34,14.98323566,0.0002928,69.999,256.663,264.9429,95.1396,-3.9056e-05,-5.59e-06,0.0,0 STARLINK-5593,1 55763U 23028Y   24080.88165408 -.00000559  00000-0 -39056-4 0  9993,2 55763  69.9990 256.6630 0002928 264.9429  95.1396 14.98323566 58378,6950.213,96.107,574.113,570.043,0.0
55763.0,STARLINK-5593,PAYLOAD,2024-03-21 13:10:54,14.98332505,0.0003051,69.9987,254.979,268.2746,91.8064,1.5822e-05,9.6e-07,0.0,0 STARLINK-5593,1 55763U 23028Y   24081.54924763  .00000096  00000-0  15822-4 0  9993,2 55763  69.9987 254.9790 0003051 268.2746  91.8064 14.98332505 58478,6950.185,96.107,574.171,569.93,0.0
55763.0,STARLINK-5593,PAYLOAD,2024-03-21 14:47:03,14.98332762,0.0003047,69.9987,254.8107,268.4471,91.6339,1.9845e-05,1.44e-06,0.0,0 STARLINK-5593,1 55763U 23028Y   24081.61600729  .00000144  00000-0  19845-4 0  9997,2 55763  69.9987 254.8107 0003047 268.4471  91.6339 14.98332762 58480,6950.184,96.107,574.167,569.932,0.0
